[{"OBJECT_NAME":"YAOGAN-35 01A","OBJECT_ID":"2021-101A","EPOCH":"2026-03-09T18:43:20.235648","MEAN_MOTION":15.24952145,"ECCENTRICITY":0.00056881,"INCLINATION":34.9903,"RA_OF_ASC_NODE":183.8731,"ARG_OF_PERICENTER":189.0601,"MEAN_ANOMALY":171.0012,"EPHEMERIS_TYPE":0,"CLASSIFICATION_TYPE":"U","NORAD_CAT_ID":49390,"ELEMENT_SET_NO":999,"REV_AT_EPOCH":24168,"BSTAR":0.00047335489,"MEAN_MOTION_DOT":0.00012075,"MEAN_MOTION_DDOT":0},{"OBJECT_NAME":"STARLINK-31597","OBJECT_ID":"2024-068K","EPOCH":"2026-03-09T07:19:40.723680","MEAN_MOTION":15.27578443,"ECCENTRICITY":0.00011514,"INCLINATION":43.0054,"RA_OF_ASC_NODE":36.711,"ARG_OF_PERICENTER":266.8565,"MEAN_ANOMALY":93.2155,"EPHEMERIS_TYPE":0,"CLASSIFICATION_TYPE":"U","NORAD_CAT_ID":59464,"ELEMENT_SET_NO":999,"REV_AT_EPOCH":10841,"BSTAR":-4.08084e-7,"MEAN_MOTION_DOT":-2.73e-6,"MEAN_MOTION_DDOT":0}]
