YAOGAN-35 01A           
1 49390U 21101A   26068.78009532  .00012075  00000+0  47335-3 0  9995
2 49390  34.9903 183.8731 0005688 189.0601 171.0012 15.24952145241689
STARLINK-31597          
1 59464U 24068K   26068.30533245 -.00000273  00000+0 -40808-6 0  9994
2 59464  43.0054  36.7110 0001151 266.8565  93.2155 15.27578443108415
